OBJECT_NAME,OBJECT_ID,EPOCH,MEAN_MOTION,ECCENTRICITY,INCLINATION,RA_OF_ASC_NODE,ARG_OF_PERICENTER,MEAN_ANOMALY,EPHEMERIS_TYPE,CLASSIFICATION_TYPE,NORAD_CAT_ID,ELEMENT_SET_NO,REV_AT_EPOCH,BSTAR,MEAN_MOTION_DOT,MEAN_MOTION_DDOT
HYSIS,2018-096A,2026-06-08T03:27:04.712256,14.78677968,.0001657,97.9836,225.9623,112.5871,247.5515,0,U,43719,999,40608,.19233E-3,.1358E-4,0
COSMOS 2530 (RODNIK-S 16),2018-097A,2026-06-08T04:48:03.309984,12.42881001,.0020511,82.5142,227.8577,58.4742,301.8337,0,U,43751,999,34117,-.29637E-3,-.31E-6,0
COSMOS 2531 (RODNIK-S 17),2018-097B,2026-06-08T05:20:27.115584,12.42912796,.0017915,82.5188,228.8991,76.7732,283.5345,0,U,43752,999,34119,.99795E-4,.24E-6,0
COSMOS 2532 (RODNIK-S 18),2018-097C,2026-06-08T04:05:13.447392,12.42909994,.0019309,82.5131,227.7216,78.7337,281.5911,0,U,43753,999,34115,.74473E-3,.113E-5,0
MINXSS-2,2018-099A,2026-06-08T03:54:57.220128,15.46295313,.0006102,97.4534,235.1876,294.2363,65.8249,0,U,43758,999,41273,.59095E-3,.29115E-3,0
SIRION PATHFINDER-2,2018-099B,2026-06-08T01:32:18.946752,15.14472143,.0007877,97.4257,208.3390,341.7112,18.3836,0,U,43759,999,41124,.30221E-3,.5499E-4,0
STPSAT-5,2018-099E,2026-06-08T02:33:01.918944,15.13619924,.0003588,97.4086,209.1383,34.6020,325.5444,0,U,43762,999,41149,.28919E-3,.5131E-4,0
POLAR SCOUT KODIAK,2018-099G,2026-06-08T03:55:49.685664,15.75432678,.0006941,97.4160,242.2806,232.3394,127.7241,0,U,43764,999,41351,.86972E-3,.133194E-2,0
HAWK-A,2018-099H,2026-06-08T00:40:34.912704,15.24536500,.0033559,97.3915,211.3837,319.6598,40.2151,0,U,43765,999,41170,.29991E-3,.7426E-4,0
SPAWAR-CAL-O,2018-099J,2026-06-08T03:15:40.597056,15.34822739,.0006736,97.4332,223.0389,328.2278,31.8557,0,U,43766,999,41213,.66997E-3,.22595E-3,0
CORVUS BC4,2018-099K,2026-06-08T01:23:59.144352,15.12424623,.0009173,97.4070,202.3062,42.4404,317.7535,0,U,43767,999,41102,.31238E-3,.5369E-4,0
AISTECHSAT 2,2018-099L,2026-06-08T02:36:37.340928,15.15359496,.0003939,97.4296,207.3418,351.5591,8.5575,0,U,43768,999,41090,.30643E-3,.5716E-4,0
FOX-1CLIFF (AO-95),2018-099N,2026-06-08T03:55:16.914144,15.26519996,.0008916,97.4386,219.4444,30.0616,330.1133,0,U,43770,999,41184,.36286E-3,.9417E-4,0
RANGE-A,2018-099R,2026-06-07T22:06:27.692640,15.13311859,.0010848,97.3972,201.7717,28.6539,331.5286,0,U,43773,999,41109,.31273E-3,.5513E-4,0
SPAWAR-CAL-R,2018-099U,2026-06-08T01:05:23.451648,15.05621060,.0020941,97.4389,199.7747,36.3456,323.9189,0,U,43776,999,41062,.18886E-3,.2677E-4,0
SPAWAR-CAL-OR,2018-099W,2026-06-06T16:12:41.141952,15.23159581,.0011076,97.3807,206.0993,2.0978,358.0304,0,U,43778,999,41105,.4707E-3,.11076E-3,0
SNUSAT-2,2018-099AA,2026-06-08T03:03:47.411712,15.21705028,.0009217,97.4064,212.6512,335.5764,24.5034,0,U,43782,999,41165,.37942E-3,.8532E-4,0
KAZSTSAT,2018-099AB,2026-06-08T00:34:55.600032,14.99841772,.0007813,97.4264,191.3697,93.5092,266.7026,0,U,43783,999,40993,.12008E-3,.1432E-4,0
SNUGLITE,2018-099AC,2026-06-07T21:42:22.663008,15.26976294,.0001843,97.3872,213.2770,353.9215,6.2001,0,U,43784,999,41190,.47553E-3,.12529E-3,0
ITASAT,2018-099AE,2026-06-08T03:05:10.088736,15.18945561,.0013095,97.4031,210.8218,31.6283,328.5736,0,U,43786,999,41153,.35522E-3,.7372E-4,0
EAGLET-I,2018-099AJ,2026-06-08T02:58:28.434144,15.12873771,.0011623,97.4234,209.0328,25.6772,334.5034,0,U,43790,999,41096,.25743E-3,.4471E-4,0
ESEO,2018-099AL,2026-06-08T01:36:24.118848,15.04213271,.0012274,97.3966,196.8457,11.2332,348.9166,0,U,43792,999,41043,.13298E-3,.1792E-4,0
HAWK-B,2018-099AN,2026-06-08T02:30:32.529024,15.22727709,.0031227,97.3967,210.8933,338.1496,21.8406,0,U,43794,999,41165,.296E-3,.6926E-4,0
THEA,2018-099AQ,2026-06-08T03:21:45.105696,15.34709510,.0006026,97.4442,228.7464,323.6606,36.4227,0,U,43796,999,41130,.46238E-3,.15496E-3,0
SKYSAT-C12,2018-099AR,2026-06-08T01:10:31.357920,15.48603772,.0004729,96.9265,182.6562,157.3586,202.7875,0,U,43797,999,42044,.34209E-3,.18194E-3,0
ASTROCAST 0.1,2018-099AS,2026-06-08T03:42:04.601952,15.48940874,.0004426,97.4376,237.3738,237.9334,122.1488,0,U,43798,999,41303,.57694E-3,.31148E-3,0
HAWK-C,2018-099AT,2026-06-07T21:27:57.434400,15.27974189,.0039235,97.3892,212.1188,320.0343,39.8010,0,U,43799,999,41249,.31201E-3,.8636E-4,0
ICEYE-X2,2018-099AU,2026-06-08T04:11:44.703744,15.17615581,.0009423,97.4356,213.1760,343.1350,16.9569,0,U,43800,999,41145,.34724E-3,.6925E-4,0
SKYSAT-C13,2018-099AW,2026-06-08T01:40:38.229024,16.08587254,.0005925,96.9033,208.3087,209.5042,150.5908,0,U,43802,999,42151,.60042E-3,.50874E-2,.13101E-3
JY1SAT (JO-97),2018-099AX,2026-06-08T03:44:58.799040,15.33366005,.0004245,97.4132,221.9612,308.5712,51.5149,0,U,43803,999,41224,.42915E-3,.13771E-3,0
