HYSIS                   
1 43719U 18096A   26159.14380454  .00001358  00000+0  19233-3 0  9997
2 43719  97.9836 225.9623 0001657 112.5871 247.5515 14.78677968406081
COSMOS 2530 (RODNIK-S *)
1 43751U 18097A   26159.20003831 -.00000031  00000+0 -29637-3 0  9990
2 43751  82.5142 227.8577 0020511  58.4742 301.8337 12.42881001341179
COSMOS 2531 (RODNIK-S *)
1 43752U 18097B   26159.22253606  .00000024  00000+0  99795-4 0  9993
2 43752  82.5188 228.8991 0017915  76.7732 283.5345 12.42912796341190
COSMOS 2532 (RODNIK-S *)
1 43753U 18097C   26159.17029453  .00000113  00000+0  74473-3 0  9993
2 43753  82.5131 227.7216 0019309  78.7337 281.5911 12.42909994341158
MINXSS-2                
1 43758U 18099A   26159.16316227  .00029115  00000+0  59095-3 0  9993
2 43758  97.4534 235.1876 0006102 294.2363  65.8249 15.46295313412731
SIRION PATHFINDER-2     
1 43759U 18099B   26159.06410818  .00005499  00000+0  30221-3 0  9993
2 43759  97.4257 208.3390 0007877 341.7112  18.3836 15.14472143411240
STPSAT-5                
1 43762U 18099E   26159.10627221  .00005131  00000+0  28919-3 0  9994
2 43762  97.4086 209.1383 0003588  34.6020 325.5444 15.13619924411490
POLAR SCOUT KODIAK      
1 43764U 18099G   26159.16376951  .00133194  00000+0  86972-3 0  9997
2 43764  97.4160 242.2806 0006941 232.3394 127.7241 15.75432678413519
HAWK-A                  
1 43765U 18099H   26159.02818186  .00007426  00000+0  29991-3 0  9990
2 43765  97.3915 211.3837 0033559 319.6598  40.2151 15.24536500411709
SPAWAR-CAL-O            
1 43766U 18099J   26159.13588654  .00022595  00000+0  66997-3 0  9998
2 43766  97.4332 223.0389 0006736 328.2278  31.8557 15.34822739412131
CORVUS BC4              
1 43767U 18099K   26159.05832343  .00005369  00000+0  31238-3 0  9997
2 43767  97.4070 202.3062 0009173  42.4404 317.7535 15.12424623411028
AISTECHSAT 2            
1 43768U 18099L   26159.10876552  .00005716  00000+0  30643-3 0  9999
2 43768  97.4296 207.3418 0003939 351.5591   8.5575 15.15359496410907
FOX-1CLIFF (AO-95)      
1 43770U 18099N   26159.16339021  .00009417  00000+0  36286-3 0  9994
2 43770  97.4386 219.4444 0008916  30.0616 330.1133 15.26519996411843
RANGE-A                 
1 43773U 18099R   26158.92115385  .00005513  00000+0  31273-3 0  9999
2 43773  97.3972 201.7717 0010848  28.6539 331.5286 15.13311859411092
SPAWAR-CAL-R            
1 43776U 18099U   26159.04541032  .00002677  00000+0  18886-3 0  9991
2 43776  97.4389 199.7747 0020941  36.3456 323.9189 15.05621060410620
SPAWAR-CAL-OR           
1 43778U 18099W   26157.67547618  .00011076  00000+0  47070-3 0  9996
2 43778  97.3807 206.0993 0011076   2.0978 358.0304 15.23159581411059
SNUSAT-2                
1 43782U 18099AA  26159.12763208  .00008532  00000+0  37942-3 0  9998
2 43782  97.4064 212.6512 0009217 335.5764  24.5034 15.21705028411653
KAZSTSAT                
1 43783U 18099AB  26159.02425463  .00001432  00000+0  12008-3 0  9994
2 43783  97.4264 191.3697 0007813  93.5092 266.7026 14.99841772409938
SNUGLITE                
1 43784U 18099AC  26158.90442897  .00012529  00000+0  47553-3 0  9993
2 43784  97.3872 213.2770 0001843 353.9215   6.2001 15.26976294411905
ITASAT                  
1 43786U 18099AE  26159.12858899  .00007372  00000+0  35522-3 0  9996
2 43786  97.4031 210.8218 0013095  31.6283 328.5736 15.18945561411530
EAGLET-I                
1 43790U 18099AJ  26159.12394021  .00004471  00000+0  25743-3 0  9994
2 43790  97.4234 209.0328 0011623  25.6772 334.5034 15.12873771410964
ESEO                    
1 43792U 18099AL  26159.06694582  .00001792  00000+0  13298-3 0  9999
2 43792  97.3966 196.8457 0012274  11.2332 348.9166 15.04213271410430
HAWK-B                  
1 43794U 18099AN  26159.10454316  .00006926  00000+0  29600-3 0  9993
2 43794  97.3967 210.8933 0031227 338.1496  21.8406 15.22727709411655
THEA                    
1 43796U 18099AQ  26159.14010539  .00015496  00000+0  46238-3 0  9992
2 43796  97.4442 228.7464 0006026 323.6606  36.4227 15.34709510411302
SKYSAT-C12              
1 43797U 18099AR  26159.04897405  .00018194  00000+0  34209-3 0  9990
2 43797  96.9265 182.6562 0004729 157.3586 202.7875 15.48603772420444
ASTROCAST 0.1           
1 43798U 18099AS  26159.15421993  .00031148  00000+0  57694-3 0  9995
2 43798  97.4376 237.3738 0004426 237.9334 122.1488 15.48940874413036
HAWK-C                  
1 43799U 18099AT  26158.89441475  .00008636  00000+0  31201-3 0  9995
2 43799  97.3892 212.1188 0039235 320.0343  39.8010 15.27974189412496
ICEYE-X2                
1 43800U 18099AU  26159.17482296  .00006925  00000+0  34724-3 0  9998
2 43800  97.4356 213.1760 0009423 343.1350  16.9569 15.17615581411459
SKYSAT-C13              
1 43802U 18099AW  26159.06988691  .00508740  13101-3  60042-3 0  9992
2 43802  96.9033 208.3087 0005925 209.5042 150.5908 16.08587254421517
JY1SAT (JO-97)          
1 43803U 18099AX  26159.15623610  .00013771  00000+0  42915-3 0  9994
2 43803  97.4132 221.9612 0004245 308.5712  51.5149 15.33366005412240
